{
  "type": "FeatureCollection",
  "features": [
    {
      "type": "Feature",
      "properties": {
        "norad_id": 36744,
        "name": "COMS 1",
        "group": "weather",
        "lat": -4.312112288490632,
        "lon": -22.482126766571348,
        "alt_km": 35784.616970165094,
        "timestamp": "2025-12-25T07:41:09.366132+00:00",
        "meta_object_name": "COMS 1",
        "meta_object_id": "2010-032A",
        "meta_epoch": "2025-12-24T19:59:21.646752",
        "meta_mean_motion": 1.00270272,
        "meta_eccentricity": 8.535e-05,
        "meta_inclination": 4.3674,
        "meta_ra_of_asc_node": 77.8619,
        "meta_arg_of_pericenter": 214.2351,
        "meta_mean_anomaly": 229.5193,
        "meta_ephemeris_type": 0,
        "meta_classification_type": "U",
        "meta_norad_cat_id": 36744,
        "meta_element_set_no": 999,
        "meta_rev_at_epoch": 4934,
        "meta_bstar": 0,
        "meta_mean_motion_dot": -3.25e-06,
        "meta_mean_motion_ddot": 0,
        "tle_line1": "1 36744U 10032A   25358.83288943 -.00000325  00000+0  00000+0 0  9997",
        "tle_line2": "2 36744   4.3674  77.8619 0000853 214.2351 229.5193  1.00270272 49344"
      },
      "geometry": {
        "type": "Point",
        "coordinates": [
          -22.482126766571348,
          -4.312112288490632
        ]
      }
    },
    {
      "type": "Feature",
      "properties": {
        "norad_id": 37214,
        "name": "FENGYUN 3B",
        "group": "weather",
        "lat": -5.109588221621128,
        "lon": 40.1949852156469,
        "alt_km": 833.5733393094097,
        "timestamp": "2025-12-25T07:41:09.366144+00:00",
        "meta_object_name": "FENGYUN 3B",
        "meta_object_id": "2010-059A",
        "meta_epoch": "2025-12-24T23:46:26.157792",
        "meta_mean_motion": 14.14792939,
        "meta_eccentricity": 0.00215005,
        "meta_inclination": 98.9886,
        "meta_ra_of_asc_node": 39.0522,
        "meta_arg_of_pericenter": 322.5397,
        "meta_mean_anomaly": 154.1265,
        "meta_ephemeris_type": 0,
        "meta_classification_type": "U",
        "meta_norad_cat_id": 37214,
        "meta_element_set_no": 999,
        "meta_rev_at_epoch": 78279,
        "meta_bstar": 0.00011613693,
        "meta_mean_motion_dot": 1.79e-06,
        "meta_mean_motion_ddot": 0,
        "tle_line1": "1 37214U 10059A   25358.99058053  .00000179  00000+0  11614-3 0  9996",
        "tle_line2": "2 37214  98.9886  39.0522 0021500 322.5397 154.1265 14.14792939782793"
      },
      "geometry": {
        "type": "Point",
        "coordinates": [
          40.1949852156469,
          -5.109588221621128
        ]
      }
    },
    {
      "type": "Feature",
      "properties": {
        "norad_id": 37849,
        "name": "SUOMI NPP",
        "group": "weather",
        "lat": 48.212835637593294,
        "lon": -73.40779093425911,
        "alt_km": 821.3830955043122,
        "timestamp": "2025-12-25T07:41:09.366155+00:00",
        "meta_object_name": "SUOMI NPP",
        "meta_object_id": "2011-061A",
        "meta_epoch": "2025-12-22T15:10:21.732672",
        "meta_mean_motion": 14.19516903,
        "meta_eccentricity": 0.00024883,
        "meta_inclination": 98.7787,
        "meta_ra_of_asc_node": 293.8852,
        "meta_arg_of_pericenter": 103.0781,
        "meta_mean_anomaly": 257.0673,
        "meta_ephemeris_type": 0,
        "meta_classification_type": "U",
        "meta_norad_cat_id": 37849,
        "meta_element_set_no": 999,
        "meta_rev_at_epoch": 73339,
        "meta_bstar": 6.3406935e-05,
        "meta_mean_motion_dot": 8.9e-07,
        "meta_mean_motion_ddot": 0,
        "tle_line1": "1 37849U 11061A   25356.63219598  .00000089  00000+0  63407-4 0  9994",
        "tle_line2": "2 37849  98.7787 293.8852 0002488 103.0781 257.0673 14.19516903733392"
      },
      "geometry": {
        "type": "Point",
        "coordinates": [
          -73.40779093425911,
          48.212835637593294
        ]
      }
    },
    {
      "type": "Feature",
      "properties": {
        "norad_id": 38552,
        "name": "METEOSAT-10 (MSG-3)",
        "group": "weather",
        "lat": 2.2547694021261586,
        "lon": -150.2919371557428,
        "alt_km": 35790.22332359529,
        "timestamp": "2025-12-25T07:41:09.366168+00:00",
        "meta_object_name": "METEOSAT-10 (MSG-3)",
        "meta_object_id": "2012-035B",
        "meta_epoch": "2025-12-24T21:39:36.881280",
        "meta_mean_motion": 1.0026661,
        "meta_eccentricity": 0.00014543,
        "meta_inclination": 4.2554,
        "meta_ra_of_asc_node": 61.689,
        "meta_arg_of_pericenter": 267.49,
        "meta_mean_anomaly": 89.6857,
        "meta_ephemeris_type": 0,
        "meta_classification_type": "U",
        "meta_norad_cat_id": 38552,
        "meta_element_set_no": 999,
        "meta_rev_at_epoch": 4910,
        "meta_bstar": 0,
        "meta_mean_motion_dot": 1.4e-07,
        "meta_mean_motion_ddot": 0,
        "tle_line1": "1 38552U 12035B   25358.90251020  .00000014  00000+0  00000+0 0  9999",
        "tle_line2": "2 38552   4.2554  61.6890 0001454 267.4900  89.6857  1.00266610 49106"
      },
      "geometry": {
        "type": "Point",
        "coordinates": [
          -150.2919371557428,
          2.2547694021261586
        ]
      }
    },
    {
      "type": "Feature",
      "properties": {
        "norad_id": 38771,
        "name": "METOP-B",
        "group": "weather",
        "lat": -13.09338648051344,
        "lon": 51.10046035835741,
        "alt_km": 826.5682095171014,
        "timestamp": "2025-12-25T07:41:09.366180+00:00",
        "meta_object_name": "METOP-B",
        "meta_object_id": "2012-049A",
        "meta_epoch": "2025-12-24T21:36:41.902272",
        "meta_mean_motion": 14.21412882,
        "meta_eccentricity": 0.00032699,
        "meta_inclination": 98.6782,
        "meta_ra_of_asc_node": 48.6522,
        "meta_arg_of_pericenter": 118.785,
        "meta_mean_anomaly": 241.3656,
        "meta_ephemeris_type": 0,
        "meta_classification_type": "U",
        "meta_norad_cat_id": 38771,
        "meta_element_set_no": 999,
        "meta_rev_at_epoch": 68850,
        "meta_bstar": 8.2446341e-05,
        "meta_mean_motion_dot": 1.37e-06,
        "meta_mean_motion_ddot": 0,
        "tle_line1": "1 38771U 12049A   25358.90048498  .00000137  00000+0  82446-4 0  9995",
        "tle_line2": "2 38771  98.6782  48.6522 0003269 118.7850 241.3656 14.21412882688502"
      },
      "geometry": {
        "type": "Point",
        "coordinates": [
          51.10046035835741,
          -13.09338648051344
        ]
      }
    },
    {
      "type": "Feature",
      "properties": {
        "norad_id": 39216,
        "name": "INSAT-3D",
        "group": "weather",
        "lat": -1.4309387095707686,
        "lon": -21.074351790537005,
        "alt_km": 35786.66679332768,
        "timestamp": "2025-12-25T07:41:09.366192+00:00",
        "meta_object_name": "INSAT-3D",
        "meta_object_id": "2013-038B",
        "meta_epoch": "2025-12-24T18:51:08.017344",
        "meta_mean_motion": 1.00274493,
        "meta_eccentricity": 0.00018977,
        "meta_inclination": 1.4741,
        "meta_ra_of_asc_node": 84.8619,
        "meta_arg_of_pericenter": 156.072,
        "meta_mean_anomaly": 264.9423,
        "meta_ephemeris_type": 0,
        "meta_classification_type": "U",
        "meta_norad_cat_id": 39216,
        "meta_element_set_no": 999,
        "meta_rev_at_epoch": 4533,
        "meta_bstar": 0,
        "meta_mean_motion_dot": -3.18e-06,
        "meta_mean_motion_ddot": 0,
        "tle_line1": "1 39216U 13038B   25358.78550946 -.00000318  00000+0  00000+0 0  9994",
        "tle_line2": "2 39216   1.4741  84.8619 0001897 156.0720 264.9423  1.00274493 45337"
      },
      "geometry": {
        "type": "Point",
        "coordinates": [
          -21.074351790537005,
          -1.4309387095707686
        ]
      }
    },
    {
      "type": "Feature",
      "properties": {
        "norad_id": 39260,
        "name": "FENGYUN 3C",
        "group": "weather",
        "lat": -24.49454449391741,
        "lon": -19.71738925420062,
        "alt_km": 856.1962503064651,
        "timestamp": "2025-12-25T07:41:09.366203+00:00",
        "meta_object_name": "FENGYUN 3C",
        "meta_object_id": "2013-052A",
        "meta_epoch": "2025-12-24T23:19:18.861312",
        "meta_mean_motion": 14.15699972,
        "meta_eccentricity": 0.00149631,
        "meta_inclination": 98.4778,
        "meta_ra_of_asc_node": 336.0546,
        "meta_arg_of_pericenter": 160.7762,
        "meta_mean_anomaly": 199.398,
        "meta_ephemeris_type": 0,
        "meta_classification_type": "U",
        "meta_norad_cat_id": 39260,
        "meta_element_set_no": 999,
        "meta_rev_at_epoch": 63391,
        "meta_bstar": 8.6714195e-05,
        "meta_mean_motion_dot": 1.29e-06,
        "meta_mean_motion_ddot": 0,
        "tle_line1": "1 39260U 13052A   25358.97174608  .00000129  00000+0  86714-4 0  9997",
        "tle_line2": "2 39260  98.4778 336.0546 0014963 160.7762 199.3980 14.15699972633918"
      },
      "geometry": {
        "type": "Point",
        "coordinates": [
          -19.71738925420062,
          -24.49454449391741
        ]
      }
    }
  ]
}